IRIDIUM 33 DEB          
1 36490U 97051WG  24162.55732085  .00010350  00000+0  22310-2 0  9992
2 36490  86.3719 255.0045 0004792 135.7839 224.3753 14.58338761784121
IRIDIUM 33 DEB          
1 36493U 97051WK  24162.53329591  .00007698  00000+0  18429-2 0  9994
2 36493  86.3610 253.8146 0014733  64.5349 295.7379 14.53386854664914
IRIDIUM 33 DEB          
1 36566U 97051WV  24162.96304596  .00077709  00000+0  13553-1 0  9992
2 36566  86.4039  54.6990 0083900 164.7872 195.5894 14.65275816766876
IRIDIUM 33 DEB          
1 37548U 97051XH  24157.61543759  .00007126  00000+0  21263-2 0  9999
2 37548  86.3547 283.2961 0025327 241.4551 118.4100 14.42730388778810
IRIDIUM 33 DEB          
1 37550U 97051XK  24155.02251581  .00007115  00000+0  16718-2 0  9991
2 37550  86.3800 268.5072 0003284 175.6036 184.5201 14.54316883781888
IRIDIUM 33 DEB          
1 37558U 97051XT  24162.06834999  .00060431  00000+0  57387-2 0  9998
2 37558  86.3845 274.4442 0023209 322.5811  37.3800 14.93020543535789
IRIDIUM 33 DEB          
1 37562U 97051XX  24162.11034902  .00008734  00000+0  23723-2 0  9990
2 37562  86.3766 281.9150 0029357 152.4864 329.1965 14.47213765783365
IRIDIUM 33 DEB          
1 37565U 97051YA  24157.99519810  .00003763  00000+0  10328-2 0  9993
2 37565  86.3514 250.2625 0015678 131.2717 228.9839 14.46787710578013
IRIDIUM 33 DEB          
1 38017U 97051YD  24162.93923711  .00031615  00000+0  12457-1 0  9996
2 38017  86.3349  40.6163 0162467  96.4343 265.5374 14.22009527535107
IRIDIUM 33 DEB          
1 38020U 97051YG  24159.76596119  .00080284  00000+0  16583-1 0  9995
2 38020  86.2838 341.6186 0102295 200.7384 158.9661 14.56663882762024
IRIDIUM 33 DEB          
1 38022U 97051YJ  24160.55258427  .00005725  00000+0  19678-2 0  9999
2 38022  86.2769 256.8262 0053200  60.8280 299.8224 14.35108207612556
IRIDIUM 33 DEB          
1 38028U 97051YQ  24162.94901131  .00003110  00000+0  91537-3 0  9998
2 38028  86.3269 238.5873 0031080 143.9966 216.3337 14.43143116575564
IRIDIUM 33 DEB          
1 38227U 97051ZB  24160.36709620  .00032824  00000+0  46236-2 0  9991
2 38227  86.3062 196.5273 0004701 183.2716 176.8474 14.77125584577282
IRIDIUM 33 DEB          
1 38228U 97051ZC  24160.10836457  .00002029  00000+0  83369-3 0  9996
2 38228  86.2943 282.9282 0066760 167.5351   7.9070 14.25368026769038
IRIDIUM 33 DEB          
1 38229U 97051ZD  24161.09112394  .00026145  00000+0  11566-1 0  9996
2 38229  86.3662  90.2271 0184059 338.5102  20.8423 14.14424110491394
IRIDIUM 33 DEB          
1 38236U 97051ZL  24162.12738960  .00033118  00000+0  61961-2 0  9995
2 38236  86.2424 219.7619 0046202 267.6734  91.9187 14.64007051535943
IRIDIUM 33 DEB          
1 38241U 97051ZR  24162.89146788  .00004677  00000+0  12400-2 0  9998
2 38241  86.3261 231.8960 0005740 102.3913 257.7933 14.48554061522216
IRIDIUM 33 DEB          
1 38469U 97051ZW  24162.18377589  .00066591  00000+0  14907-1 0  9993
2 38469  86.2638 321.1775 0111265 137.3084 223.6835 14.52521860531285
IRIDIUM 33 DEB          
1 38474U 97051AAB 24160.55122332  .00005605  00000+0  15645-2 0  9992
2 38474  86.3455 249.6882 0029620 129.1050 231.2793 14.45857232783944
IRIDIUM 33 DEB          
1 38477U 97051AAE 24159.38934778  .00004485  00000+0  38646-2 0  9990
2 38477  86.4097 308.3423 0439116  26.6187 335.6793 13.49873107471799
IRIDIUM 33 DEB          
1 39594U 97051AAG 24155.62772952  .00021798  00000+0  38991-2 0  9997
2 39594  86.3960 279.2439 0008775 254.1144 105.9103 14.66743300556333
IRIDIUM 33 DEB          
1 39777U 97051AAJ 24162.50370739  .00008296  00000+0  25551-2 0  9998
2 39777  85.9705  78.7618 0071559 215.7262 143.9138 14.39896075522198
IRIDIUM 33 DEB          
1 39778U 97051AAK 24162.07608484  .00006635  00000+0  18337-2 0  9991
2 39778  86.3799 280.7690 0010212  75.4876 284.7459 14.46588240527086
IRIDIUM 33 DEB          
1 39781U 97051AAN 24161.66656435  .00010794  00000+0  55876-2 0  9998
2 39781  86.3689 121.5293 0217132 237.9392 299.0605 14.03433070644352
IRIDIUM 33 DEB          
1 39783U 97051AAQ 24161.25481985  .00020064  00000+0  43645-2 0  9993
2 39783  86.1647 162.0799 0043638 298.7132  73.4564 14.57303984641053
IRIDIUM 33 DEB          
1 39792U 97051AAZ 24162.05106243  .00034363  00000+0  12043-1 0  9997
2 39792  86.4009  87.4062 0150940  66.2143 295.4794 14.28682240514879
IRIDIUM 33 DEB          
1 40996U 97051ABJ 24161.23914630  .00015436  00000+0  29941-2 0  9997
2 40996  86.3651 251.5420 0014101 169.5037 219.9417 14.63090607543355
IRIDIUM 33 DEB          
1 46435U 97051ABN 24162.02601546  .00008648  00000+0  39125-2 0  9990
2 46435  86.2848  66.3410 0260632 231.2800 138.0635 14.05506911   991
IRIDIUM 33 DEB          
1 46734U 97051ABR 24160.52700441  .00004503  00000+0  15326-2 0  9992
2 46734  86.2656 244.0475 0043749 348.6749  72.2221 14.35825747550689
IRIDIUM 33 DEB          
1 46965U 97051ABX 24161.91604373  .00005282  00000+0  12626-2 0  9994
2 46965  86.3399 223.5580 0022568  34.1088  92.5119 14.53319199542465
IRIDIUM 33 DEB          
1 46971U 97051ACD 24162.94250207  .00015433  00000+0  28178-2 0  9996
2 46971  86.3456 224.5340 0013670  59.3218  62.7109 14.65813409560913
IRIDIUM 33 DEB          
1 46972U 97051ACE 24157.64159903  .00004096  00000+0  11422-2 0  9996
2 46972  86.3956 277.4610 0011549 156.8764 266.5374 14.46071418535362
IRIDIUM 33 DEB          
1 46974U 97051ACG 24162.76713065  .00015141  00000+0  57449-2 0  9994
2 46974  86.3097 341.8937 0119020 182.9180 177.1333 14.27130440496136
IRIDIUM 33 DEB          
1 46979U 97051ACM 24160.63139520  .00018973  00000+0  47071-2 0  9997
2 46979  86.3486 296.2169 0052577 339.1555  20.7505 14.50929220273234
